STARLINK-30527          
1 58007U 23153S   26068.38881244  .00001635  00000+0  68950-4 0  9990
2 58007  43.0021 200.0773 0002842 280.8447  79.2084 15.27585536137413
PELICAN-6               
1 66703U 25276AP  26068.70709364  .00077979  00000+0  29726-2 0  9998
2 66703  97.4276 144.2072 0003569 157.8575 202.2819 15.26377980 15334
